start=new Date('2021-08-26T00:00:00.000Z').valueOf();
sats=[{"PERIAPSIS":"543.591","DECAY_DATE":null,"SEMIMAJOR_AXIS":"6922.875","EPHEMERIS_TYPE":"0","ECCENTRICITY":"0.00016600","MEAN_MOTION_DDOT":"0.0000000000000","BSTAR":"0.00008285000000","OBJECT_ID":"2020-062AA","REV_AT_EPOCH":"5518","REF_FRAME":"TEME","RA_OF_ASC_NODE":"210.2400","FILE":"3103208","PERIOD":"95.541","CENTER_NAME":"EARTH","OBJECT_NAME":"STARLINK-1575","MEAN_MOTION_DOT":"0.00000978","COUNTRY_CODE":"US","NORAD_CAT_ID":"46349","TLE_LINE1":"1 46349U 20062AA  21237.64641533  .00000978  00000-0  82850-4 0  9994","MEAN_ANOMALY":"301.1681","LAUNCH_DATE":"2020-09-03","EPOCH":"2021-08-25T15:30:50.284512","CLASSIFICATION_TYPE":"U","OBJECT_TYPE":"PAYLOAD","MEAN_MOTION":"15.07207344","APOAPSIS":"545.889","TIME_SYSTEM":"UTC","MEAN_ELEMENT_THEORY":"SGP4","SITE":"AFETR","TLE_LINE2":"2 46349  53.0548 210.2400 0001660  58.9471 301.1681 15.07207344 55181","RCS_SIZE":"LARGE","ARG_OF_PERICENTER":"58.9471","ELEMENT_SET_NO":"999","INCLINATION":"53.0548","GP_ID":"183446589"},{"EPOCH":"2021-08-25T17:50:36.243456","CLASSIFICATION_TYPE":"U","TLE_LINE1":"1 46350U 20062AB  21237.74347504  .00000337  00000-0  41540-4 0  9998","MEAN_ANOMALY":"308.3531","LAUNCH_DATE":"2020-09-03","RCS_SIZE":"LARGE","ARG_OF_PERICENTER":"51.7517","GP_ID":"183445840","INCLINATION":"53.0532","ELEMENT_SET_NO":"999","MEAN_MOTION":"15.06388018","APOAPSIS":"547.703","OBJECT_TYPE":"PAYLOAD","MEAN_ELEMENT_THEORY":"SGP4","TIME_SYSTEM":"UTC","TLE_LINE2":"2 46350  53.0532 254.9368 0000654  51.7517 308.3531 15.06388018 54570","SITE":"AFETR","MEAN_MOTION_DDOT":"0.0000000000000","ECCENTRICITY":"0.00006540","BSTAR":"0.00004154000000","PERIAPSIS":"546.797","SEMIMAJOR_AXIS":"6925.385","DECAY_DATE":null,"EPHEMERIS_TYPE":"0","CENTER_NAME":"EARTH","OBJECT_NAME":"STARLINK-1617","PERIOD":"95.593","FILE":"3103208","NORAD_CAT_ID":"46350","MEAN_MOTION_DOT":"0.00000337","COUNTRY_CODE":"US","OBJECT_ID":"2020-062AB","REV_AT_EPOCH":"5457","REF_FRAME":"TEME","RA_OF_ASC_NODE":"254.9368"},{"INCLINATION":"53.0527","ELEMENT_SET_NO":"999","GP_ID":"183418627","ARG_OF_PERICENTER":"46.0310","RCS_SIZE":"LARGE","TLE_LINE2":"2 46351  53.0527 237.0094 0000909  46.0310 314.0754 15.06402982 54785","SITE":"AFETR","TIME_SYSTEM":"UTC","MEAN_ELEMENT_THEORY":"SGP4","OBJECT_TYPE":"PAYLOAD","APOAPSIS":"547.834","MEAN_MOTION":"15.06402982","CLASSIFICATION_TYPE":"U","EPOCH":"2021-08-25T06:49:46.452288","LAUNCH_DATE":"2020-09-03","MEAN_ANOMALY":"314.0754","TLE_LINE1":"1 46351U 20062AC  21237.28456542  .00000772  00000-0  70722-4 0  9998","MEAN_MOTION_DOT":"0.00000772","COUNTRY_CODE":"US","NORAD_CAT_ID":"46351","FILE":"3103042","PERIOD":"95.592","OBJECT_NAME":"STARLINK-1646","CENTER_NAME":"EARTH","RA_OF_ASC_NODE":"237.0094","REV_AT_EPOCH":"5478","REF_FRAME":"TEME","OBJECT_ID":"2020-062AC","BSTAR":"0.00007072200000","ECCENTRICITY":"0.00009090","MEAN_MOTION_DDOT":"0.0000000000000","EPHEMERIS_TYPE":"0","DECAY_DATE":null,"SEMIMAJOR_AXIS":"6925.339","PERIAPSIS":"546.575"},{"GP_ID":"183446330","ELEMENT_SET_NO":"999","INCLINATION":"53.0533","RCS_SIZE":"LARGE","ARG_OF_PERICENTER":"46.8653","SITE":"AFETR","TLE_LINE2":"2 46352  53.0533 234.6990 0000853  46.8653 313.2407 15.06392285 54866","APOAPSIS":"547.828","MEAN_MOTION":"15.06392285","OBJECT_TYPE":"PAYLOAD","MEAN_ELEMENT_THEORY":"SGP4","TIME_SYSTEM":"UTC","EPOCH":"2021-08-25T19:07:33.183840","CLASSIFICATION_TYPE":"U","LAUNCH_DATE":"2020-09-03","MEAN_ANOMALY":"313.2407","TLE_LINE1":"1 46352U 20062AD  21237.79691185 -.00001457  00000-0 -78994-4 0  9991","NORAD_CAT_ID":"46352","COUNTRY_CODE":"US","MEAN_MOTION_DOT":"-0.00001457","OBJECT_NAME":"STARLINK-1653","CENTER_NAME":"EARTH","PERIOD":"95.593","FILE":"3103208","RA_OF_ASC_NODE":"234.6990","OBJECT_ID":"2020-062AD","REV_AT_EPOCH":"5486","REF_FRAME":"TEME","BSTAR":"-0.00007899400000","MEAN_MOTION_DDOT":"0.0000000000000","ECCENTRICITY":"0.00008530","SEMIMAJOR_AXIS":"6925.372","DECAY_DATE":null,"EPHEMERIS_TYPE":"0","PERIAPSIS":"546.646"},{"RCS_SIZE":"LARGE","ARG_OF_PERICENTER":"46.3671","INCLINATION":"53.0538","ELEMENT_SET_NO":"999","GP_ID":"183419629","TIME_SYSTEM":"UTC","MEAN_ELEMENT_THEORY":"SGP4","OBJECT_TYPE":"PAYLOAD","APOAPSIS":"547.590","MEAN_MOTION":"15.06392761","SITE":"AFETR","TLE_LINE2":"2 46353  53.0538 255.9025 0000511  46.3671 313.7360 15.06392761 54539","EPOCH":"2021-08-25T12:42:45.488160","CLASSIFICATION_TYPE":"U","TLE_LINE1":"1 46353U 20062AE  21237.52969315  .00000458  00000-0  49598-4 0  9992","MEAN_ANOMALY":"313.7360","LAUNCH_DATE":"2020-09-03","FILE":"3103042","PERIOD":"95.593","CENTER_NAME":"EARTH","OBJECT_NAME":"STARLINK-1656","COUNTRY_CODE":"US","MEAN_MOTION_DOT":"0.00000458","NORAD_CAT_ID":"46353","REV_AT_EPOCH":"5453","REF_FRAME":"TEME","OBJECT_ID":"2020-062AE","RA_OF_ASC_NODE":"255.9025","ECCENTRICITY":"0.00005110","MEAN_MOTION_DDOT":"0.0000000000000","BSTAR":"0.00004959800000","PERIAPSIS":"546.882","EPHEMERIS_TYPE":"0","DECAY_DATE":null,"SEMIMAJOR_AXIS":"6925.371"},{"OBJECT_NAME":"STARLINK-1657","CENTER_NAME":"EARTH","PERIOD":"95.593","FILE":"3103208","NORAD_CAT_ID":"46354","COUNTRY_CODE":"US","MEAN_MOTION_DOT":"0.00000515","OBJECT_ID":"2020-062AF","REF_FRAME":"TEME","REV_AT_EPOCH":"5458","RA_OF_ASC_NODE":"254.4604","MEAN_MOTION_DDOT":"0.0000000000000","ECCENTRICITY":"0.00007280","BSTAR":"0.00005349600000","PERIAPSIS":"546.761","SEMIMAJOR_AXIS":"6925.400","DECAY_DATE":null,"EPHEMERIS_TYPE":"0","RCS_SIZE":"LARGE","ARG_OF_PERICENTER":"69.4794","GP_ID":"183445340","INCLINATION":"53.0532","ELEMENT_SET_NO":"999","MEAN_MOTION":"15.06383193","APOAPSIS":"547.769","OBJECT_TYPE":"PAYLOAD","MEAN_ELEMENT_THEORY":"SGP4","TIME_SYSTEM":"UTC","SITE":"AFETR","TLE_LINE2":"2 46354  53.0532 254.4604 0000728  69.4794 290.6273 15.06383193 54583","EPOCH":"2021-08-25T20:24:32.548608","CLASSIFICATION_TYPE":"U","TLE_LINE1":"1 46354U 20062AF  21237.85037672  .00000515  00000-0  53496-4 0  9997","LAUNCH_DATE":"2020-09-03","MEAN_ANOMALY":"290.6273"},{"CLASSIFICATION_TYPE":"U","EPOCH":"2021-08-25T18:11:50.234784","TLE_LINE1":"1 46355U 20062AG  21237.75822031  .00000754  00000-0  69529-4 0  9997","LAUNCH_DATE":"2020-09-03","MEAN_ANOMALY":"283.9013","RCS_SIZE":"LARGE","ARG_OF_PERICENTER":"76.2078","INCLINATION":"53.0538","ELEMENT_SET_NO":"999","GP_ID":"183446085","OBJECT_TYPE":"PAYLOAD","MEAN_MOTION":"15.06389991","APOAPSIS":"547.882","TIME_SYSTEM":"UTC","MEAN_ELEMENT_THEORY":"SGP4","TLE_LINE2":"2 46355  53.0538 254.8750 0000921  76.2078 283.9013 15.06389991 54570","SITE":"AFETR","ECCENTRICITY":"0.00009210","MEAN_MOTION_DDOT":"0.0000000000000","BSTAR":"0.00006952900000","PERIAPSIS":"546.606","DECAY_DATE":null,"SEMIMAJOR_AXIS":"6925.379","EPHEMERIS_TYPE":"0","FILE":"3103208","PERIOD":"95.593","OBJECT_NAME":"STARLINK-1661","CENTER_NAME":"EARTH","MEAN_MOTION_DOT":"0.00000754","COUNTRY_CODE":"US","NORAD_CAT_ID":"46355","OBJECT_ID":"2020-062AG","REV_AT_EPOCH":"5457","REF_FRAME":"TEME","RA_OF_ASC_NODE":"254.8750"},{"MEAN_MOTION":"15.06392190","APOAPSIS":"547.490","OBJECT_TYPE":"PAYLOAD","MEAN_ELEMENT_THEORY":"SGP4","TIME_SYSTEM":"UTC","TLE_LINE2":"2 46356  53.0546 254.5377 0000365  46.3389 313.7630 15.06392190 54580","SITE":"AFETR","RCS_SIZE":"LARGE","ARG_OF_PERICENTER":"46.3389","GP_ID":"183446831","ELEMENT_SET_NO":"999","INCLINATION":"53.0546","TLE_LINE1":"1 46356U 20062AH  21237.83562279  .00000489  00000-0  51701-4 0  9990","MEAN_ANOMALY":"313.7630","LAUNCH_DATE":"2020-09-03","CLASSIFICATION_TYPE":"U","EPOCH":"2021-08-25T20:03:17.809056","OBJECT_ID":"2020-062AH","REV_AT_EPOCH":"5458","REF_FRAME":"TEME","RA_OF_ASC_NODE":"254.5377","OBJECT_NAME":"STARLINK-1665","CENTER_NAME":"EARTH","PERIOD":"95.593","FILE":"3103208","NORAD_CAT_ID":"46356","COUNTRY_CODE":"US","MEAN_MOTION_DOT":"0.00000489","PERIAPSIS":"546.985","SEMIMAJOR_AXIS":"6925.372","DECAY_DATE":null,"EPHEMERIS_TYPE":"0","MEAN_MOTION_DDOT":"0.0000000000000","ECCENTRICITY":"0.00003650","BSTAR":"0.00005170100000"},{"MEAN_ELEMENT_THEORY":"SGP4","TIME_SYSTEM":"UTC","APOAPSIS":"547.796","MEAN_MOTION":"15.06395572","OBJECT_TYPE":"PAYLOAD","TLE_LINE2":"2 46357  53.0542 233.9467 0000822  50.6237 309.4825 15.06395572 54884","SITE":"AFETR","ARG_OF_PERICENTER":"50.6237","RCS_SIZE":"LARGE","GP_ID":"183446590","INCLINATION":"53.0542","ELEMENT_SET_NO":"999","TLE_LINE1":"1 46357U 20062AJ  21237.96648652  .00000713  00000-0  66742-4 0  9996","MEAN_ANOMALY":"309.4825","LAUNCH_DATE":"2020-09-03","EPOCH":"2021-08-25T23:11:44.435328","CLASSIFICATION_TYPE":"U","REV_AT_EPOCH":"5488","REF_FRAME":"TEME","OBJECT_ID":"2020-062AJ","RA_OF_ASC_NODE":"233.9467","OBJECT_NAME":"STARLINK-1666","CENTER_NAME":"EARTH","PERIOD":"95.592","FILE":"3103208","NORAD_CAT_ID":"46357","MEAN_MOTION_DOT":"0.00000713","COUNTRY_CODE":"US","PERIAPSIS":"546.658","EPHEMERIS_TYPE":"0","SEMIMAJOR_AXIS":"6925.362","DECAY_DATE":null,"MEAN_MOTION_DDOT":"0.0000000000000","ECCENTRICITY":"0.00008220","BSTAR":"0.00006674200000"},{"RCS_SIZE":"LARGE","ARG_OF_PERICENTER":"60.6610","INCLINATION":"53.0527","ELEMENT_SET_NO":"999","GP_ID":"183445841","OBJECT_TYPE":"PAYLOAD","APOAPSIS":"547.696","MEAN_MOTION":"15.06397020","TIME_SYSTEM":"UTC","MEAN_ELEMENT_THEORY":"SGP4","TLE_LINE2":"2 46358  53.0527 254.9335 0000684  60.6610 299.4447 15.06397020 54571","SITE":"AFETR","CLASSIFICATION_TYPE":"U","EPOCH":"2021-08-25T17:55:54.745824","TLE_LINE1":"1 46358U 20062AK  21237.74716141  .00000541  00000-0  55164-4 0  9997","MEAN_ANOMALY":"299.4447","LAUNCH_DATE":"2020-09-03","PERIOD":"95.592","FILE":"3103208","OBJECT_NAME":"STARLINK-1690","CENTER_NAME":"EARTH","MEAN_MOTION_DOT":"0.00000541","COUNTRY_CODE":"US","NORAD_CAT_ID":"46358","OBJECT_ID":"2020-062AK","REV_AT_EPOCH":"5457","REF_FRAME":"TEME","RA_OF_ASC_NODE":"254.9335","ECCENTRICITY":"0.00006840","MEAN_MOTION_DDOT":"0.0000000000000","BSTAR":"0.00005516400000","PERIAPSIS":"546.749","DECAY_DATE":null,"SEMIMAJOR_AXIS":"6925.358","EPHEMERIS_TYPE":"0"}];
